STARLINK-30573          
1 58058U 23158H   26068.24978116  .00001415  00000+0  60948-4 0  9996
2 58058  43.0041  29.4484 0001533 272.0241  88.0435 15.27573073133501
REAL                    
1 64875U 25154G   26068.72233414  .00022901  00000+0  82904-3 0  9994
2 64875  97.4133 137.2581 0001853 118.5876 241.5550 15.28408058 34830
