[{"OBJECT_NAME":"STARLINK-30573","OBJECT_ID":"2023-158H","EPOCH":"2026-03-09T05:59:41.092224","MEAN_MOTION":15.27573073,"ECCENTRICITY":0.00015332,"INCLINATION":43.0041,"RA_OF_ASC_NODE":29.4484,"ARG_OF_PERICENTER":272.0241,"MEAN_ANOMALY":88.0435,"EPHEMERIS_TYPE":0,"CLASSIFICATION_TYPE":"U","NORAD_CAT_ID":58058,"ELEMENT_SET_NO":999,"REV_AT_EPOCH":13350,"BSTAR":6.0948113e-5,"MEAN_MOTION_DOT":1.415e-5,"MEAN_MOTION_DDOT":0},{"OBJECT_NAME":"REAL","OBJECT_ID":"2025-154G","EPOCH":"2026-03-09T17:20:09.670560","MEAN_MOTION":15.28408058,"ECCENTRICITY":0.00018528,"INCLINATION":97.4133,"RA_OF_ASC_NODE":137.2581,"ARG_OF_PERICENTER":118.5876,"MEAN_ANOMALY":241.555,"EPHEMERIS_TYPE":0,"CLASSIFICATION_TYPE":"U","NORAD_CAT_ID":64875,"ELEMENT_SET_NO":999,"REV_AT_EPOCH":3483,"BSTAR":0.0008290401,"MEAN_MOTION_DOT":0.00022901,"MEAN_MOTION_DDOT":0}]
